[{"OBJECT_NAME":"YUNHAI-1 04","OBJECT_ID":"2023-159A","EPOCH":"2026-03-09T23:32:58.106976","MEAN_MOTION":14.32660643,"ECCENTRICITY":0.00021766,"INCLINATION":98.5096,"RA_OF_ASC_NODE":96.5782,"ARG_OF_PERICENTER":112.1327,"MEAN_ANOMALY":248.0088,"EPHEMERIS_TYPE":0,"CLASSIFICATION_TYPE":"U","NORAD_CAT_ID":58073,"ELEMENT_SET_NO":999,"REV_AT_EPOCH":12559,"BSTAR":0.0001354342,"MEAN_MOTION_DOT":3.25e-6,"MEAN_MOTION_DDOT":0},{"OBJECT_NAME":"SL-8 R\/B","OBJECT_ID":"1994-083B","EPOCH":"2026-03-09T20:57:01.039680","MEAN_MOTION":14.34423441,"ECCENTRICITY":0.00050759,"INCLINATION":74.0308,"RA_OF_ASC_NODE":226.4362,"ARG_OF_PERICENTER":13.4144,"MEAN_ANOMALY":102.3454,"EPHEMERIS_TYPE":0,"CLASSIFICATION_TYPE":"U","NORAD_CAT_ID":23432,"ELEMENT_SET_NO":999,"REV_AT_EPOCH":63291,"BSTAR":9.6979735e-5,"MEAN_MOTION_DOT":2.47e-6,"MEAN_MOTION_DDOT":0}]
